[{"OBJECT_NAME":"STARLINK-35131","OBJECT_ID":"2025-235T","EPOCH":"2026-03-09T16:59:42.373248","MEAN_MOTION":15.30199624,"ECCENTRICITY":0.00010683,"INCLINATION":53.1578,"RA_OF_ASC_NODE":245.2262,"ARG_OF_PERICENTER":46.1174,"MEAN_ANOMALY":313.9915,"EPHEMERIS_TYPE":0,"CLASSIFICATION_TYPE":"U","NORAD_CAT_ID":66075,"ELEMENT_SET_NO":999,"REV_AT_EPOCH":2292,"BSTAR":0.0005599778,"MEAN_MOTION_DOT":0.00016262,"MEAN_MOTION_DDOT":0},{"OBJECT_NAME":"TRANSPORTER-1 OBJECT AA","OBJECT_ID":"2021-006AA","EPOCH":"2026-03-09T22:58:14.761920","MEAN_MOTION":15.29982294,"ECCENTRICITY":0.00086604,"INCLINATION":97.2381,"RA_OF_ASC_NODE":112.457,"ARG_OF_PERICENTER":185.709,"MEAN_ANOMALY":174.4054,"EPHEMERIS_TYPE":0,"CLASSIFICATION_TYPE":"U","NORAD_CAT_ID":47437,"ELEMENT_SET_NO":999,"REV_AT_EPOCH":28414,"BSTAR":0.0002197941,"MEAN_MOTION_DOT":6.312e-5,"MEAN_MOTION_DDOT":0}]
